[{"OBJECT_NAME":"STARLINK-36751","OBJECT_ID":"2026-026J","EPOCH":"2026-03-04T12:00:00.999648","MEAN_MOTION":15.70038747,"ECCENTRICITY":0.00015148,"INCLINATION":97.2842,"RA_OF_ASC_NODE":117.9315,"ARG_OF_PERICENTER":67.0675,"MEAN_ANOMALY":323.9676,"EPHEMERIS_TYPE":0,"CLASSIFICATION_TYPE":"U","NORAD_CAT_ID":67729,"ELEMENT_SET_NO":999,"REV_AT_EPOCH":447,"BSTAR":-0.017581711,"MEAN_MOTION_DOT":-0.018413,"MEAN_MOTION_DDOT":0},{"OBJECT_NAME":"STARLINK-36747","OBJECT_ID":"2026-026K","EPOCH":"2026-03-04T12:00:00.999648","MEAN_MOTION":15.69947566,"ECCENTRICITY":0.00014331,"INCLINATION":97.2843,"RA_OF_ASC_NODE":117.9274,"ARG_OF_PERICENTER":69.6653,"MEAN_ANOMALY":311.8892,"EPHEMERIS_TYPE":0,"CLASSIFICATION_TYPE":"U","NORAD_CAT_ID":67730,"ELEMENT_SET_NO":999,"REV_AT_EPOCH":447,"BSTAR":-0.017748616,"MEAN_MOTION_DOT":-0.0185028,"MEAN_MOTION_DDOT":0},{"OBJECT_NAME":"STARLINK-36315","OBJECT_ID":"2026-026L","EPOCH":"2026-03-04T12:00:00.999648","MEAN_MOTION":15.70220661,"ECCENTRICITY":0.00014054,"INCLINATION":97.2839,"RA_OF_ASC_NODE":117.9345,"ARG_OF_PERICENTER":78.2327,"MEAN_ANOMALY":319.8865,"EPHEMERIS_TYPE":0,"CLASSIFICATION_TYPE":"U","NORAD_CAT_ID":67731,"ELEMENT_SET_NO":999,"REV_AT_EPOCH":447,"BSTAR":-0.017469507,"MEAN_MOTION_DOT":-0.01843151,"MEAN_MOTION_DDOT":0},{"OBJECT_NAME":"STARLINK-36260","OBJECT_ID":"2026-026M","EPOCH":"2026-03-04T12:00:00.999648","MEAN_MOTION":15.70601894,"ECCENTRICITY":0.00015615,"INCLINATION":97.284,"RA_OF_ASC_NODE":117.9387,"ARG_OF_PERICENTER":63.4169,"MEAN_ANOMALY":344.8039,"EPHEMERIS_TYPE":0,"CLASSIFICATION_TYPE":"U","NORAD_CAT_ID":67732,"ELEMENT_SET_NO":999,"REV_AT_EPOCH":447,"BSTAR":-0.017224449,"MEAN_MOTION_DOT":-0.01846278,"MEAN_MOTION_DDOT":0},{"OBJECT_NAME":"STARLINK-36746","OBJECT_ID":"2026-026N","EPOCH":"2026-03-04T12:00:00.999648","MEAN_MOTION":15.5029703,"ECCENTRICITY":0.00014415,"INCLINATION":97.284,"RA_OF_ASC_NODE":117.7926,"ARG_OF_PERICENTER":69.3572,"MEAN_ANOMALY":354.8211,"EPHEMERIS_TYPE":0,"CLASSIFICATION_TYPE":"U","NORAD_CAT_ID":67733,"ELEMENT_SET_NO":999,"REV_AT_EPOCH":447,"BSTAR":-0.028373585,"MEAN_MOTION_DOT":-0.01435642,"MEAN_MOTION_DDOT":0},{"OBJECT_NAME":"STARLINK-36749","OBJECT_ID":"2026-026P","EPOCH":"2026-03-04T12:00:00.999648","MEAN_MOTION":15.64328424,"ECCENTRICITY":0.00014052,"INCLINATION":97.2842,"RA_OF_ASC_NODE":117.9135,"ARG_OF_PERICENTER":81.8535,"MEAN_ANOMALY":266.7103,"EPHEMERIS_TYPE":0,"CLASSIFICATION_TYPE":"U","NORAD_CAT_ID":67734,"ELEMENT_SET_NO":999,"REV_AT_EPOCH":447,"BSTAR":-0.022183446,"MEAN_MOTION_DOT":-0.01877262,"MEAN_MOTION_DDOT":0},{"OBJECT_NAME":"STARLINK-36691","OBJECT_ID":"2026-026Q","EPOCH":"2026-03-04T12:00:00.999648","MEAN_MOTION":15.71428614,"ECCENTRICITY":0.00016302,"INCLINATION":97.2838,"RA_OF_ASC_NODE":117.9536,"ARG_OF_PERICENTER":70.0794,"MEAN_ANOMALY":16.2431,"EPHEMERIS_TYPE":0,"CLASSIFICATION_TYPE":"U","NORAD_CAT_ID":67735,"ELEMENT_SET_NO":999,"REV_AT_EPOCH":461,"BSTAR":-0.016598646,"MEAN_MOTION_DOT":-0.0184291,"MEAN_MOTION_DDOT":0},{"OBJECT_NAME":"STARLINK-36317","OBJECT_ID":"2026-026R","EPOCH":"2026-03-04T12:00:00.999648","MEAN_MOTION":15.7117364,"ECCENTRICITY":0.00015826,"INCLINATION":97.2839,"RA_OF_ASC_NODE":117.9484,"ARG_OF_PERICENTER":67.3742,"MEAN_ANOMALY":7.4111,"EPHEMERIS_TYPE":0,"CLASSIFICATION_TYPE":"U","NORAD_CAT_ID":67736,"ELEMENT_SET_NO":999,"REV_AT_EPOCH":447,"BSTAR":-0.016759891,"MEAN_MOTION_DOT":-0.0184108,"MEAN_MOTION_DDOT":0},{"OBJECT_NAME":"STARLINK-36330","OBJECT_ID":"2026-026S","EPOCH":"2026-03-04T12:00:00.999648","MEAN_MOTION":15.71522481,"ECCENTRICITY":0.00015961,"INCLINATION":97.2838,"RA_OF_ASC_NODE":117.9562,"ARG_OF_PERICENTER":69.1104,"MEAN_ANOMALY":24.2299,"EPHEMERIS_TYPE":0,"CLASSIFICATION_TYPE":"U","NORAD_CAT_ID":67737,"ELEMENT_SET_NO":999,"REV_AT_EPOCH":447,"BSTAR":-0.016453439,"MEAN_MOTION_DOT":-0.01835174,"MEAN_MOTION_DDOT":0},{"OBJECT_NAME":"STARLINK-36327","OBJECT_ID":"2026-026T","EPOCH":"2026-03-04T12:00:00.999648","MEAN_MOTION":15.71821169,"ECCENTRICITY":0.0001668,"INCLINATION":97.2837,"RA_OF_ASC_NODE":117.9609,"ARG_OF_PERICENTER":68.7699,"MEAN_ANOMALY":34.8237,"EPHEMERIS_TYPE":0,"CLASSIFICATION_TYPE":"U","NORAD_CAT_ID":67738,"ELEMENT_SET_NO":999,"REV_AT_EPOCH":448,"BSTAR":-0.016355609,"MEAN_MOTION_DOT":-0.01845993,"MEAN_MOTION_DDOT":0},{"OBJECT_NAME":"STARLINK-36329","OBJECT_ID":"2026-026U","EPOCH":"2026-03-04T12:00:00.999648","MEAN_MOTION":15.72856175,"ECCENTRICITY":0.00017954,"INCLINATION":97.2841,"RA_OF_ASC_NODE":117.9801,"ARG_OF_PERICENTER":72.4852,"MEAN_ANOMALY":86.7037,"EPHEMERIS_TYPE":0,"CLASSIFICATION_TYPE":"U","NORAD_CAT_ID":67739,"ELEMENT_SET_NO":999,"REV_AT_EPOCH":448,"BSTAR":-0.015643329,"MEAN_MOTION_DOT":-0.01845554,"MEAN_MOTION_DDOT":0},{"OBJECT_NAME":"STARLINK-36737","OBJECT_ID":"2026-026V","EPOCH":"2026-03-04T12:00:00.999648","MEAN_MOTION":15.71978274,"ECCENTRICITY":0.00017206,"INCLINATION":97.2838,"RA_OF_ASC_NODE":117.9637,"ARG_OF_PERICENTER":71.5792,"MEAN_ANOMALY":41.9408,"EPHEMERIS_TYPE":0,"CLASSIFICATION_TYPE":"U","NORAD_CAT_ID":67740,"ELEMENT_SET_NO":999,"REV_AT_EPOCH":448,"BSTAR":-0.016303048,"MEAN_MOTION_DOT":-0.01851609,"MEAN_MOTION_DDOT":0},{"OBJECT_NAME":"STARLINK-36740","OBJECT_ID":"2026-026W","EPOCH":"2026-03-04T12:00:00.999648","MEAN_MOTION":15.6770728,"ECCENTRICITY":0.00016607,"INCLINATION":97.2835,"RA_OF_ASC_NODE":117.961,"ARG_OF_PERICENTER":69.4229,"MEAN_ANOMALY":33.225,"EPHEMERIS_TYPE":0,"CLASSIFICATION_TYPE":"U","NORAD_CAT_ID":67741,"ELEMENT_SET_NO":999,"REV_AT_EPOCH":448,"BSTAR":-0.019261341,"MEAN_MOTION_DOT":-0.01868993,"MEAN_MOTION_DDOT":0},{"OBJECT_NAME":"STARLINK-36693","OBJECT_ID":"2026-026X","EPOCH":"2026-03-04T12:00:00.999648","MEAN_MOTION":15.68368903,"ECCENTRICITY":0.00016137,"INCLINATION":97.284,"RA_OF_ASC_NODE":117.955,"ARG_OF_PERICENTER":77.3218,"MEAN_ANOMALY":10.282,"EPHEMERIS_TYPE":0,"CLASSIFICATION_TYPE":"U","NORAD_CAT_ID":67742,"ELEMENT_SET_NO":999,"REV_AT_EPOCH":461,"BSTAR":-0.018695757,"MEAN_MOTION_DOT":-0.01828799,"MEAN_MOTION_DDOT":0},{"OBJECT_NAME":"STARLINK-36717","OBJECT_ID":"2026-026Y","EPOCH":"2026-03-04T12:00:00.999648","MEAN_MOTION":15.70491538,"ECCENTRICITY":0.00017711,"INCLINATION":97.284,"RA_OF_ASC_NODE":117.9683,"ARG_OF_PERICENTER":72.5142,"MEAN_ANOMALY":51.2025,"EPHEMERIS_TYPE":0,"CLASSIFICATION_TYPE":"U","NORAD_CAT_ID":67743,"ELEMENT_SET_NO":999,"REV_AT_EPOCH":461,"BSTAR":-0.017356273,"MEAN_MOTION_DOT":-0.0185126,"MEAN_MOTION_DDOT":0},{"OBJECT_NAME":"STARLINK-36692","OBJECT_ID":"2026-026Z","EPOCH":"2026-03-04T12:00:00.999648","MEAN_MOTION":15.69237962,"ECCENTRICITY":0.00016966,"INCLINATION":97.2838,"RA_OF_ASC_NODE":117.9613,"ARG_OF_PERICENTER":61.7501,"MEAN_ANOMALY":43.0636,"EPHEMERIS_TYPE":0,"CLASSIFICATION_TYPE":"U","NORAD_CAT_ID":67744,"ELEMENT_SET_NO":999,"REV_AT_EPOCH":448,"BSTAR":-0.018081745,"MEAN_MOTION_DOT":-0.01832936,"MEAN_MOTION_DDOT":0}]
