STARLINK-36751          
1 67729U 26026J   26063.50001157 -.01841300  00000+0 -17582-1 0  9995
2 67729  97.2842 117.9315 0001514  67.0675 323.9676 15.70038747  4477
STARLINK-36747          
1 67730U 26026K   26063.50001157 -.01850280  00000+0 -17749-1 0  9999
2 67730  97.2843 117.9274 0001433  69.6653 311.8892 15.69947566  4470
STARLINK-36315          
1 67731U 26026L   26063.50001157 -.01843151  00000+0 -17470-1 0  9990
2 67731  97.2839 117.9345 0001405  78.2327 319.8865 15.70220661  4478
STARLINK-36260          
1 67732U 26026M   26063.50001157 -.01846278  00000+0 -17224-1 0  9991
2 67732  97.2840 117.9387 0001561  63.4169 344.8039 15.70601894  4472
STARLINK-36746          
1 67733U 26026N   26063.50001157 -.01435642  00000+0 -28374-1 0  9999
2 67733  97.2840 117.7926 0001441  69.3572 354.8211 15.50297030  4474
STARLINK-36749          
1 67734U 26026P   26063.50001157 -.01877262  00000+0 -22183-1 0  9990
2 67734  97.2842 117.9135 0001405  81.8535 266.7103 15.64328424  4477
STARLINK-36691          
1 67735U 26026Q   26063.50001157 -.01842910  00000+0 -16599-1 0  9997
2 67735  97.2838 117.9536 0001630  70.0794  16.2431 15.71428614  4613
STARLINK-36317          
1 67736U 26026R   26063.50001157 -.01841080  00000+0 -16760-1 0  9995
2 67736  97.2839 117.9484 0001582  67.3742   7.4111 15.71173640  4472
STARLINK-36330          
1 67737U 26026S   26063.50001157 -.01835174  00000+0 -16453-1 0  9992
2 67737  97.2838 117.9562 0001596  69.1104  24.2299 15.71522481  4471
STARLINK-36327          
1 67738U 26026T   26063.50001157 -.01845993  00000+0 -16356-1 0  9995
2 67738  97.2837 117.9609 0001668  68.7699  34.8237 15.71821169  4482
STARLINK-36329          
1 67739U 26026U   26063.50001157 -.01845554  00000+0 -15643-1 0  9997
2 67739  97.2841 117.9801 0001795  72.4852  86.7037 15.72856175  4486
STARLINK-36737          
1 67740U 26026V   26063.50001157 -.01851609  00000+0 -16303-1 0  9991
2 67740  97.2838 117.9637 0001720  71.5792  41.9408 15.71978274  4481
STARLINK-36740          
1 67741U 26026W   26063.50001157 -.01868993  00000+0 -19261-1 0  9992
2 67741  97.2835 117.9610 0001660  69.4229  33.2250 15.67707280  4485
STARLINK-36693          
1 67742U 26026X   26063.50001157 -.01828799  00000+0 -18696-1 0  9994
2 67742  97.2840 117.9550 0001613  77.3218  10.2820 15.68368903  4618
STARLINK-36717          
1 67743U 26026Y   26063.50001157 -.01851260  00000+0 -17356-1 0  9996
2 67743  97.2840 117.9683 0001771  72.5142  51.2025 15.70491538  4610
STARLINK-36692          
1 67744U 26026Z   26063.50001157 -.01832936  00000+0 -18082-1 0  9993
2 67744  97.2838 117.9613 0001696  61.7501  43.0636 15.69237962  4485
